[{"OBJECT_NAME":"SL-16 R/B","OBJECT_ID":"1993-059B","EPOCH":"2026-04-29T20:38:14.751744","MEAN_MOTION":14.17240584,"ECCENTRICITY":0.0015656,"INCLINATION":70.9899,"RA_OF_ASC_NODE":263.2155,"ARG_OF_PERICENTER":137.8487,"MEAN_ANOMALY":222.3844,"EPHEMERIS_TYPE":0,"CLASSIFICATION_TYPE":"U","NORAD_CAT_ID":22803,"ELEMENT_SET_NO":999,"REV_AT_EPOCH":68678,"BSTAR":0.00015007,"MEAN_MOTION_DOT":2.55e-6,"MEAN_MOTION_DDOT":0},{"OBJECT_NAME":"ARIANE 40 R/B","OBJECT_ID":"1993-061H","EPOCH":"2026-04-29T19:32:16.200960","MEAN_MOTION":14.32886413,"ECCENTRICITY":0.0011752,"INCLINATION":98.4839,"RA_OF_ASC_NODE":187.6707,"ARG_OF_PERICENTER":129.5158,"MEAN_ANOMALY":230.7066,"EPHEMERIS_TYPE":0,"CLASSIFICATION_TYPE":"U","NORAD_CAT_ID":22830,"ELEMENT_SET_NO":999,"REV_AT_EPOCH":70142,"BSTAR":9.1684e-5,"MEAN_MOTION_DOT":2.08e-6,"MEAN_MOTION_DDOT":0},{"OBJECT_NAME":"COSMOS 2278","OBJECT_ID":"1994-023A","EPOCH":"2026-04-29T20:56:06.281088","MEAN_MOTION":14.14388933,"ECCENTRICITY":0.0010775,"INCLINATION":71.0545,"RA_OF_ASC_NODE":68.0109,"ARG_OF_PERICENTER":302.5625,"MEAN_ANOMALY":57.4457,"EPHEMERIS_TYPE":0,"CLASSIFICATION_TYPE":"U","NORAD_CAT_ID":23087,"ELEMENT_SET_NO":999,"REV_AT_EPOCH":65204,"BSTAR":5.336e-5,"MEAN_MOTION_DOT":5.5e-7,"MEAN_MOTION_DDOT":0},{"OBJECT_NAME":"SL-16 R/B","OBJECT_ID":"1994-023B","EPOCH":"2026-04-29T18:06:13.356864","MEAN_MOTION":14.15015931,"ECCENTRICITY":0.0004976,"INCLINATION":70.9997,"RA_OF_ASC_NODE":323.6477,"ARG_OF_PERICENTER":237.1676,"MEAN_ANOMALY":122.8967,"EPHEMERIS_TYPE":0,"CLASSIFICATION_TYPE":"U","NORAD_CAT_ID":23088,"ELEMENT_SET_NO":999,"REV_AT_EPOCH":65331,"BSTAR":0.00011353,"MEAN_MOTION_DOT":1.72e-6,"MEAN_MOTION_DDOT":0},{"OBJECT_NAME":"SL-16 R/B","OBJECT_ID":"1994-074B","EPOCH":"2026-04-29T15:57:03.442752","MEAN_MOTION":14.79460138,"ECCENTRICITY":0.0007879,"INCLINATION":97.7032,"RA_OF_ASC_NODE":148.3994,"ARG_OF_PERICENTER":62.1383,"MEAN_ANOMALY":51.8489,"EPHEMERIS_TYPE":0,"CLASSIFICATION_TYPE":"U","NORAD_CAT_ID":23343,"ELEMENT_SET_NO":999,"REV_AT_EPOCH":69478,"BSTAR":6.8842e-5,"MEAN_MOTION_DOT":4.65e-6,"MEAN_MOTION_DDOT":0},{"OBJECT_NAME":"SL-16 R/B","OBJECT_ID":"1994-077B","EPOCH":"2026-04-29T18:52:48.008064","MEAN_MOTION":14.15572786,"ECCENTRICITY":2.76e-5,"INCLINATION":70.9833,"RA_OF_ASC_NODE":244.9864,"ARG_OF_PERICENTER":56.648,"MEAN_ANOMALY":303.4669,"EPHEMERIS_TYPE":0,"CLASSIFICATION_TYPE":"U","NORAD_CAT_ID":23405,"ELEMENT_SET_NO":999,"REV_AT_EPOCH":62346,"BSTAR":-3.151e-5,"MEAN_MOTION_DOT":-1.1e-6,"MEAN_MOTION_DDOT":0},{"OBJECT_NAME":"ARIANE 40+ R/B","OBJECT_ID":"1995-021B","EPOCH":"2026-04-29T20:04:09.224832","MEAN_MOTION":14.39805875,"ECCENTRICITY":0.0006462,"INCLINATION":98.4426,"RA_OF_ASC_NODE":190.6053,"ARG_OF_PERICENTER":359.6857,"MEAN_ANOMALY":114.6092,"EPHEMERIS_TYPE":0,"CLASSIFICATION_TYPE":"U","NORAD_CAT_ID":23561,"ELEMENT_SET_NO":999,"REV_AT_EPOCH":62660,"BSTAR":0.00010008,"MEAN_MOTION_DOT":2.7e-6,"MEAN_MOTION_DDOT":0},{"OBJECT_NAME":"SL-16 R/B","OBJECT_ID":"1995-058B","EPOCH":"2026-04-29T20:48:11.342880","MEAN_MOTION":14.15503787,"ECCENTRICITY":0.0011133,"INCLINATION":71.0211,"RA_OF_ASC_NODE":72.8074,"ARG_OF_PERICENTER":32.0454,"MEAN_ANOMALY":328.1343,"EPHEMERIS_TYPE":0,"CLASSIFICATION_TYPE":"U","NORAD_CAT_ID":23705,"ELEMENT_SET_NO":999,"REV_AT_EPOCH":57509,"BSTAR":-0.00010661,"MEAN_MOTION_DOT":-2.56e-6,"MEAN_MOTION_DDOT":0},{"OBJECT_NAME":"SL-16 R/B","OBJECT_ID":"1996-051B","EPOCH":"2026-04-29T20:58:09.884064","MEAN_MOTION":14.12429107,"ECCENTRICITY":0.0012516,"INCLINATION":70.7613,"RA_OF_ASC_NODE":66.9007,"ARG_OF_PERICENTER":58.7339,"MEAN_ANOMALY":301.5004,"EPHEMERIS_TYPE":0,"CLASSIFICATION_TYPE":"U","NORAD_CAT_ID":24298,"ELEMENT_SET_NO":999,"REV_AT_EPOCH":52887,"BSTAR":7.5913e-5,"MEAN_MOTION_DOT":9.1e-7,"MEAN_MOTION_DDOT":0},{"OBJECT_NAME":"ORBVIEW 2 (SEASTAR)","OBJECT_ID":"1997-037A","EPOCH":"2026-04-29T10:32:24.064224","MEAN_MOTION":14.35527428,"ECCENTRICITY":0.00011141,"INCLINATION":98.8645,"RA_OF_ASC_NODE":285.1178,"ARG_OF_PERICENTER":267.4234,"MEAN_ANOMALY":92.6823,"EPHEMERIS_TYPE":0,"CLASSIFICATION_TYPE":"U","NORAD_CAT_ID":24883,"ELEMENT_SET_NO":999,"REV_AT_EPOCH":51575,"BSTAR":0.00010570509,"MEAN_MOTION_DOT":2.57e-6,"MEAN_MOTION_DDOT":0},{"OBJECT_NAME":"SL-16 R/B","OBJECT_ID":"1998-043G","EPOCH":"2026-04-29T21:07:53.973984","MEAN_MOTION":14.26060627,"ECCENTRICITY":0.0009056,"INCLINATION":98.8332,"RA_OF_ASC_NODE":73.6341,"ARG_OF_PERICENTER":221.7907,"MEAN_ANOMALY":138.2581,"EPHEMERIS_TYPE":0,"CLASSIFICATION_TYPE":"U","NORAD_CAT_ID":25400,"ELEMENT_SET_NO":999,"REV_AT_EPOCH":44628,"BSTAR":3.8866e-5,"MEAN_MOTION_DOT":4.7e-7,"MEAN_MOTION_DDOT":0},{"OBJECT_NAME":"SL-16 R/B","OBJECT_ID":"1998-045B","EPOCH":"2026-04-29T20:27:44.975232","MEAN_MOTION":14.16196462,"ECCENTRICITY":0.0009328,"INCLINATION":71.0106,"RA_OF_ASC_NODE":73.9771,"ARG_OF_PERICENTER":298.5395,"MEAN_ANOMALY":61.4789,"EPHEMERIS_TYPE":0,"CLASSIFICATION_TYPE":"U","NORAD_CAT_ID":25407,"ELEMENT_SET_NO":999,"REV_AT_EPOCH":43434,"BSTAR":1.7081e-5,"MEAN_MOTION_DOT":-1.4e-7,"MEAN_MOTION_DDOT":0},{"OBJECT_NAME":"ISS (ZARYA)","OBJECT_ID":"1998-067A","EPOCH":"2026-04-29T16:24:41.969376","MEAN_MOTION":15.49024031,"ECCENTRICITY":0.0007117,"INCLINATION":51.6318,"RA_OF_ASC_NODE":180.1788,"ARG_OF_PERICENTER":4.9077,"MEAN_ANOMALY":355.1979,"EPHEMERIS_TYPE":0,"CLASSIFICATION_TYPE":"U","NORAD_CAT_ID":25544,"ELEMENT_SET_NO":999,"REV_AT_EPOCH":56423,"BSTAR":0.00014081,"MEAN_MOTION_DOT":7.324e-5,"MEAN_MOTION_DDOT":0},{"OBJECT_NAME":"CZ-4B R/B","OBJECT_ID":"1999-025C","EPOCH":"2026-04-29T18:03:42.981984","MEAN_MOTION":14.18274836,"ECCENTRICITY":0.0036823,"INCLINATION":98.6528,"RA_OF_ASC_NODE":162.7997,"ARG_OF_PERICENTER":196.3348,"MEAN_ANOMALY":277.1614,"EPHEMERIS_TYPE":0,"CLASSIFICATION_TYPE":"U","NORAD_CAT_ID":25732,"ELEMENT_SET_NO":999,"REV_AT_EPOCH":39540,"BSTAR":5.4583e-5,"MEAN_MOTION_DOT":7.0e-7,"MEAN_MOTION_DDOT":0},{"OBJECT_NAME":"OKEAN-O","OBJECT_ID":"1999-039A","EPOCH":"2026-04-29T16:24:25.105824","MEAN_MOTION":14.80407979,"ECCENTRICITY":0.0001605,"INCLINATION":97.9351,"RA_OF_ASC_NODE":179.0308,"ARG_OF_PERICENTER":112.2597,"MEAN_ANOMALY":247.8785,"EPHEMERIS_TYPE":0,"CLASSIFICATION_TYPE":"U","NORAD_CAT_ID":25860,"ELEMENT_SET_NO":999,"REV_AT_EPOCH":44193,"BSTAR":9.377e-5,"MEAN_MOTION_DOT":6.64e-6,"MEAN_MOTION_DDOT":0},{"OBJECT_NAME":"SL-16 R/B","OBJECT_ID":"1999-039B","EPOCH":"2026-04-29T18:01:03.681120","MEAN_MOTION":14.8179502,"ECCENTRICITY":0.0016177,"INCLINATION":97.9873,"RA_OF_ASC_NODE":178.7443,"ARG_OF_PERICENTER":91.9446,"MEAN_ANOMALY":268.3619,"EPHEMERIS_TYPE":0,"CLASSIFICATION_TYPE":"U","NORAD_CAT_ID":25861,"ELEMENT_SET_NO":999,"REV_AT_EPOCH":44442,"BSTAR":8.1334e-5,"MEAN_MOTION_DOT":5.89e-6,"MEAN_MOTION_DDOT":0},{"OBJECT_NAME":"DELTA 2 R/B","OBJECT_ID":"1999-041E","EPOCH":"2026-04-29T08:06:26.906688","MEAN_MOTION":14.11935284,"ECCENTRICITY":0.0502399,"INCLINATION":51.7602,"RA_OF_ASC_NODE":98.9402,"ARG_OF_PERICENTER":137.7855,"MEAN_ANOMALY":226.2919,"EPHEMERIS_TYPE":0,"CLASSIFICATION_TYPE":"U","NORAD_CAT_ID":25876,"ELEMENT_SET_NO":999,"REV_AT_EPOCH":37018,"BSTAR":0.00013239303,"MEAN_MOTION_DOT":5.78e-6,"MEAN_MOTION_DDOT":0}]
