SL-16 R/B               
1 22803U 93059B   26119.85989296  .00000255  00000+0  15007-3 0  9993
2 22803  70.9899 263.2155 0015656 137.8487 222.3844 14.17240584686780
ARIANE 40 R/B           
1 22830U 93061H   26119.81407640  .00000208  00000+0  91684-4 0  9994
2 22830  98.4839 187.6707 0011752 129.5158 230.7066 14.32886413701429
COSMOS 2278             
1 23087U 94023A   26119.87229492  .00000055  00000+0  53360-4 0  9990
2 23087  71.0545  68.0109 0010775 302.5625  57.4457 14.14388933652044
SL-16 R/B               
1 23088U 94023B   26119.75432126  .00000172  00000+0  11353-3 0  9993
2 23088  70.9997 323.6477 0004976 237.1676 122.8967 14.15015931653317
SL-16 R/B               
1 23343U 94074B   26119.66462318  .00000465  00000+0  68842-4 0  9990
2 23343  97.7032 148.3994 0007879  62.1383  51.8489 14.79460138694789
SL-16 R/B               
1 23405U 94077B   26119.78666676 -.00000110  00000+0 -31510-4 0  9999
2 23405  70.9833 244.9864 0000276  56.6480 303.4669 14.15572786623465
ARIANE 40+ R/B          
1 23561U 95021B   26119.83621788  .00000270  00000+0  10008-3 0  9996
2 23561  98.4426 190.6053 0006462 359.6857 114.6092 14.39805875626600
SL-16 R/B               
1 23705U 95058B   26119.86679795 -.00000256  00000+0 -10661-3 0  9991
2 23705  71.0211  72.8074 0011133  32.0454 328.1343 14.15503787575097
SL-16 R/B               
1 24298U 96051B   26119.87372551  .00000091  00000+0  75913-4 0  9991
2 24298  70.7613  66.9007 0012516  58.7339 301.5004 14.12429107528873
ORBVIEW 2 (SEASTAR)     
1 24883U 97037A   26119.43916741  .00000257  00000+0  10571-3 0  9995
2 24883  98.8645 285.1178 0001114 267.4234  92.6823 14.35527428515758
SL-16 R/B               
1 25400U 98043G   26119.88048581  .00000047  00000+0  38866-4 0  9991
2 25400  98.8332  73.6341 0009056 221.7907 138.2581 14.26060627446284
SL-16 R/B               
1 25407U 98045B   26119.85260388 -.00000014  00000+0  17081-4 0  9999
2 25407  71.0106  73.9771 0009328 298.5395  61.4789 14.16196462434345
ISS (ZARYA)             
1 25544U 98067A   26119.68381909  .00007324  00000+0  14081-3 0  9995
2 25544  51.6318 180.1788 0007117   4.9077 355.1979 15.49024031564230
CZ-4B R/B               
1 25732U 99025C   26119.75258081  .00000070  00000+0  54583-4 0  9994
2 25732  98.6528 162.7997 0036823 196.3348 277.1614 14.18274836395409
OKEAN-O                 
1 25860U 99039A   26119.68362391  .00000664  00000+0  93770-4 0  9993
2 25860  97.9351 179.0308 0001605 112.2597 247.8785 14.80407979441935
SL-16 R/B               
1 25861U 99039B   26119.75073705  .00000589  00000+0  81334-4 0  9999
2 25861  97.9873 178.7443 0016177  91.9446 268.3619 14.81795020444426
DELTA 2 R/B             
1 25876U 99041E   26119.33781142  .00000578  00000+0  13239-3 0  9999
2 25876  51.7602  98.9402 0502399 137.7855 226.2919 14.11935284370185
